[
  {
    "COMMENT": "GENERATED VIA SPACETRACK.ORG API",
    "ORIGINATOR": "18 SPCS",
    "NORAD_CAT_ID": "41240",
    "OBJECT_NAME": "JASON 3",
    "OBJECT_TYPE": "PAYLOAD",
    "CLASSIFICATION_TYPE": "U",
    "INTLDES": "16002A",
    "EPOCH": "2023-08-27 18:20:56",
    "EPOCH_MICROSECONDS": "84928",
    "MEAN_MOTION": "12.80929852",
    "ECCENTRICITY": "0.0007571",
    "INCLINATION": "66.0403",
    "RA_OF_ASC_NODE": "102.8531",
    "ARG_OF_PERICENTER": "268.0156",
    "MEAN_ANOMALY": "91.9992",
    "EPHEMERIS_TYPE": "0",
    "ELEMENT_SET_NO": "999",
    "REV_AT_EPOCH": "35593",
    "BSTAR": "0.00011929",
    "MEAN_MOTION_DOT": "-0.00000034",
    "MEAN_MOTION_DDOT": "0",
    "FILE": "3990481",
    "TLE_LINE0": "0 JASON 3",
    "TLE_LINE1": "1 41240U 16002A   23239.76453802 -.00000034  00000-0  11929-3 0  9997",
    "TLE_LINE2": "2 41240  66.0403 102.8531 0007571 268.0156  91.9992 12.80929852355930",
    "OBJECT_ID": "2016-002A",
    "OBJECT_NUMBER": "41240",
    "SEMIMAJOR_AXIS": "7715.871",
    "PERIOD": "112.418",
    "APOGEE": "1343.577",
    "PERIGEE": "1331.894",
    "DECAYED": "0"
  },
  {
    "COMMENT": "GENERATED VIA SPACETRACK.ORG API",
    "ORIGINATOR": "18 SPCS",
    "NORAD_CAT_ID": "41240",
    "OBJECT_NAME": "JASON 3",
    "OBJECT_TYPE": "PAYLOAD",
    "CLASSIFICATION_TYPE": "U",
    "INTLDES": "16002A",
    "EPOCH": "2023-08-27 22:05:47",
    "EPOCH_MICROSECONDS": "610816",
    "MEAN_MOTION": "12.80929848",
    "ECCENTRICITY": "0.0007568",
    "INCLINATION": "66.0403",
    "RA_OF_ASC_NODE": "102.5288",
    "ARG_OF_PERICENTER": "268.0065",
    "MEAN_ANOMALY": "92.0084",
    "EPHEMERIS_TYPE": "0",
    "ELEMENT_SET_NO": "999",
    "REV_AT_EPOCH": "35581",
    "BSTAR": "0.00013464",
    "MEAN_MOTION_DOT": "-0.0000003",
    "MEAN_MOTION_DDOT": "0",
    "FILE": "3990698",
    "TLE_LINE0": "0 JASON 3",
    "TLE_LINE1": "1 41240U 16002A   23239.92068994 -.00000030  00000-0  13464-3 0  9991",
    "TLE_LINE2": "2 41240  66.0403 102.5288 0007568 268.0065  92.0084 12.80929848355817",
    "OBJECT_ID": "2016-002A",
    "OBJECT_NUMBER": "41240",
    "SEMIMAJOR_AXIS": "7715.871",
    "PERIOD": "112.418",
    "APOGEE": "1343.575",
    "PERIGEE": "1331.896",
    "DECAYED": "0"
  },
  {
    "COMMENT": "GENERATED VIA SPACETRACK.ORG API",
    "ORIGINATOR": "18 SPCS",
    "NORAD_CAT_ID": "41240",
    "OBJECT_NAME": "JASON 3",
    "OBJECT_TYPE": "PAYLOAD",
    "CLASSIFICATION_TYPE": "U",
    "INTLDES": "16002A",
    "EPOCH": "2023-08-28 18:42:30",
    "EPOCH_MICROSECONDS": "986784",
    "MEAN_MOTION": "12.80929919",
    "ECCENTRICITY": "0.0007558",
    "INCLINATION": "66.0403",
    "RA_OF_ASC_NODE": "100.7448",
    "ARG_OF_PERICENTER": "267.9759",
    "MEAN_ANOMALY": "92.039",
    "EPHEMERIS_TYPE": "0",
    "ELEMENT_SET_NO": "999",
    "REV_AT_EPOCH": "35606",
    "BSTAR": "0.00017156",
    "MEAN_MOTION_DOT": "-0.00000022",
    "MEAN_MOTION_DDOT": "0",
    "FILE": "3991440",
    "TLE_LINE0": "0 JASON 3",
    "TLE_LINE1": "1 41240U 16002A   23240.77952531 -.00000022  00000-0  17156-3 0  9998",
    "TLE_LINE2": "2 41240  66.0403 100.7448 0007558 267.9759  92.0390 12.80929919356069",
    "OBJECT_ID": "2016-002A",
    "OBJECT_NUMBER": "41240",
    "SEMIMAJOR_AXIS": "7715.870",
    "PERIOD": "112.418",
    "APOGEE": "1343.567",
    "PERIGEE": "1331.904",
    "DECAYED": "0"
  },
  {
    "COMMENT": "GENERATED VIA SPACETRACK.ORG API",
    "ORIGINATOR": "18 SPCS",
    "NORAD_CAT_ID": "41240",
    "OBJECT_NAME": "JASON 3",
    "OBJECT_TYPE": "PAYLOAD",
    "CLASSIFICATION_TYPE": "U",
    "INTLDES": "16002A",
    "EPOCH": "2023-08-28 20:34:56",
    "EPOCH_MICROSECONDS": "748864",
    "MEAN_MOTION": "12.80929928",
    "ECCENTRICITY": "0.0007557",
    "INCLINATION": "66.0403",
    "RA_OF_ASC_NODE": "100.5826",
    "ARG_OF_PERICENTER": "267.9974",
    "MEAN_ANOMALY": "92.0176",
    "EPHEMERIS_TYPE": "0",
    "ELEMENT_SET_NO": "999",
    "REV_AT_EPOCH": "35593",
    "BSTAR": "0.00018215",
    "MEAN_MOTION_DOT": "-0.00000019",
    "MEAN_MOTION_DDOT": "0",
    "FILE": "3991628",
    "TLE_LINE0": "0 JASON 3",
    "TLE_LINE1": "1 41240U 16002A   23240.85760126 -.00000019  00000-0  18215-3 0  9997",
    "TLE_LINE2": "2 41240  66.0403 100.5826 0007557 267.9974  92.0176 12.80929928355932",
    "OBJECT_ID": "2016-002A",
    "OBJECT_NUMBER": "41240",
    "SEMIMAJOR_AXIS": "7715.870",
    "PERIOD": "112.418",
    "APOGEE": "1343.566",
    "PERIGEE": "1331.905",
    "DECAYED": "0"
  },
  {
    "COMMENT": "GENERATED VIA SPACETRACK.ORG API",
    "ORIGINATOR": "18 SPCS",
    "NORAD_CAT_ID": "41240",
    "OBJECT_NAME": "JASON 3",
    "OBJECT_TYPE": "PAYLOAD",
    "CLASSIFICATION_TYPE": "U",
    "INTLDES": "16002A",
    "EPOCH": "2023-08-29 20:56:31",
    "EPOCH_MICROSECONDS": "647264",
    "MEAN_MOTION": "12.80929951",
    "ECCENTRICITY": "0.0007543",
    "INCLINATION": "66.0402",
    "RA_OF_ASC_NODE": "98.4743",
    "ARG_OF_PERICENTER": "267.9306",
    "MEAN_ANOMALY": "92.0846",
    "EPHEMERIS_TYPE": "0",
    "ELEMENT_SET_NO": "999",
    "REV_AT_EPOCH": "35606",
    "BSTAR": "0.00015761",
    "MEAN_MOTION_DOT": "-0.00000025",
    "MEAN_MOTION_DDOT": "0",
    "FILE": "3992439",
    "TLE_LINE0": "0 JASON 3",
    "TLE_LINE1": "1 41240U 16002A   23241.87258851 -.00000025  00000-0  15761-3 0  9997",
    "TLE_LINE2": "2 41240  66.0402  98.4743 0007543 267.9306  92.0846 12.80929951356063",
    "OBJECT_ID": "2016-002A",
    "OBJECT_NUMBER": "41240",
    "SEMIMAJOR_AXIS": "7715.870",
    "PERIOD": "112.418",
    "APOGEE": "1343.555",
    "PERIGEE": "1331.915",
    "DECAYED": "0"
  },
  {
    "COMMENT": "GENERATED VIA SPACETRACK.ORG API",
    "ORIGINATOR": "18 SPCS",
    "NORAD_CAT_ID": "41240",
    "OBJECT_NAME": "JASON 3",
    "OBJECT_TYPE": "PAYLOAD",
    "CLASSIFICATION_TYPE": "U",
    "INTLDES": "16002A",
    "EPOCH": "2023-08-30 04:26:14",
    "EPOCH_MICROSECONDS": "689536",
    "MEAN_MOTION": "12.80929989",
    "ECCENTRICITY": "0.000754",
    "INCLINATION": "66.0402",
    "RA_OF_ASC_NODE": "97.8256",
    "ARG_OF_PERICENTER": "267.9749",
    "MEAN_ANOMALY": "92.0402",
    "EPHEMERIS_TYPE": "0",
    "ELEMENT_SET_NO": "999",
    "REV_AT_EPOCH": "35624",
    "BSTAR": "0.00016576",
    "MEAN_MOTION_DOT": "-0.00000023",
    "MEAN_MOTION_DDOT": "0",
    "FILE": "3992532",
    "TLE_LINE0": "0 JASON 3",
    "TLE_LINE1": "1 41240U 16002A   23242.18489224 -.00000023  00000-0  16576-3 0  9995",
    "TLE_LINE2": "2 41240  66.0402  97.8256 0007540 267.9749  92.0402 12.80929989356242",
    "OBJECT_ID": "2016-002A",
    "OBJECT_NUMBER": "41240",
    "SEMIMAJOR_AXIS": "7715.870",
    "PERIOD": "112.418",
    "APOGEE": "1343.553",
    "PERIGEE": "1331.917",
    "DECAYED": "0"
  },
  {
    "COMMENT": "GENERATED VIA SPACETRACK.ORG API",
    "ORIGINATOR": "18 SPCS",
    "NORAD_CAT_ID": "41240",
    "OBJECT_NAME": "JASON 3",
    "OBJECT_TYPE": "PAYLOAD",
    "CLASSIFICATION_TYPE": "U",
    "INTLDES": "16002A",
    "EPOCH": "2023-08-30 21:18:06",
    "EPOCH_MICROSECONDS": "534432",
    "MEAN_MOTION": "12.80930007",
    "ECCENTRICITY": "0.0007529",
    "INCLINATION": "66.0402",
    "RA_OF_ASC_NODE": "96.366",
    "ARG_OF_PERICENTER": "267.894",
    "MEAN_ANOMALY": "92.1212",
    "EPHEMERIS_TYPE": "0",
    "ELEMENT_SET_NO": "999",
    "REV_AT_EPOCH": "35619",
    "BSTAR": "0.00013874",
    "MEAN_MOTION_DOT": "-0.00000029",
    "MEAN_MOTION_DDOT": "0",
    "FILE": "3993321",
    "TLE_LINE0": "0 JASON 3",
    "TLE_LINE1": "1 41240U 16002A   23242.88757563 -.00000029  00000-0  13874-3 0  9990",
    "TLE_LINE2": "2 41240  66.0402  96.3660 0007529 267.8940  92.1212 12.80930007356191",
    "OBJECT_ID": "2016-002A",
    "OBJECT_NUMBER": "41240",
    "SEMIMAJOR_AXIS": "7715.870",
    "PERIOD": "112.418",
    "APOGEE": "1343.544",
    "PERIGEE": "1331.926",
    "DECAYED": "0"
  },
  {
    "COMMENT": "GENERATED VIA SPACETRACK.ORG API",
    "ORIGINATOR": "18 SPCS",
    "NORAD_CAT_ID": "41240",
    "OBJECT_NAME": "JASON 3",
    "OBJECT_TYPE": "PAYLOAD",
    "CLASSIFICATION_TYPE": "U",
    "INTLDES": "16002A",
    "EPOCH": "2023-08-31 04:47:49",
    "EPOCH_MICROSECONDS": "573248",
    "MEAN_MOTION": "12.80930059",
    "ECCENTRICITY": "0.0007526",
    "INCLINATION": "66.0402",
    "RA_OF_ASC_NODE": "95.7173",
    "ARG_OF_PERICENTER": "267.922",
    "MEAN_ANOMALY": "92.0933",
    "EPHEMERIS_TYPE": "0",
    "ELEMENT_SET_NO": "999",
    "REV_AT_EPOCH": "35637",
    "BSTAR": "0.00015644",
    "MEAN_MOTION_DOT": "-0.00000025",
    "MEAN_MOTION_DDOT": "0",
    "FILE": "3993436",
    "TLE_LINE0": "0 JASON 3",
    "TLE_LINE1": "1 41240U 16002A   23243.19987932 -.00000025  00000-0  15644-3 0  9993",
    "TLE_LINE2": "2 41240  66.0402  95.7173 0007526 267.9220  92.0933 12.80930059356378",
    "OBJECT_ID": "2016-002A",
    "OBJECT_NUMBER": "41240",
    "SEMIMAJOR_AXIS": "7715.870",
    "PERIOD": "112.418",
    "APOGEE": "1343.542",
    "PERIGEE": "1331.928",
    "DECAYED": "0"
  },
  {
    "COMMENT": "GENERATED VIA SPACETRACK.ORG API",
    "ORIGINATOR": "18 SPCS",
    "NORAD_CAT_ID": "41240",
    "OBJECT_NAME": "JASON 3",
    "OBJECT_TYPE": "PAYLOAD",
    "CLASSIFICATION_TYPE": "U",
    "INTLDES": "16002A",
    "EPOCH": "2023-08-31 19:47:15",
    "EPOCH_MICROSECONDS": "654336",
    "MEAN_MOTION": "12.8093008",
    "ECCENTRICITY": "0.0007519",
    "INCLINATION": "66.0402",
    "RA_OF_ASC_NODE": "94.4199",
    "ARG_OF_PERICENTER": "267.838",
    "MEAN_ANOMALY": "92.1774",
    "EPHEMERIS_TYPE": "0",
    "ELEMENT_SET_NO": "999",
    "REV_AT_EPOCH": "35631",
    "BSTAR": "0.00015678",
    "MEAN_MOTION_DOT": "-0.00000025",
    "MEAN_MOTION_DDOT": "0",
    "FILE": "3994074",
    "TLE_LINE0": "0 JASON 3",
    "TLE_LINE1": "1 41240U 16002A   23243.82448674 -.00000025  00000-0  15678-3 0  9995",
    "TLE_LINE2": "2 41240  66.0402  94.4199 0007519 267.8380  92.1774 12.80930080356312",
    "OBJECT_ID": "2016-002A",
    "OBJECT_NUMBER": "41240",
    "SEMIMAJOR_AXIS": "7715.870",
    "PERIOD": "112.418",
    "APOGEE": "1343.536",
    "PERIGEE": "1331.933",
    "DECAYED": "0"
  }
]